{"type":"FeatureCollection","bbox":[128.2876822024509,36.19071321797232,128.89662081518017,36.53259155202909],"features":[{"type":"Feature","properties":{"name":"의성군"},"geometry":{"type":"Polygon","coordinates":[[[128.36415110396982,36.53078451710412],[128.3655983122159,36.530159989714356],[128.36655300052675,36.529474862980734],[128.36794750871684,36.52698395321483],[128.36795149058355,36.52482781727548],[128.36786453951402,36.52386494595904],[128.36790589939832,36.52161184730548],[128.36822359071186,36.5190167931939],[128.36860903800553,36.51873705441983],[128.37071119835335,36.51671900723554],[128.3708539468808,36.516185759093915],[128.37060584679054,36.51463357772213],[128.36975990855368,36.51194417158189],[128.36953339968747,36.51075024830797],[128.36958109710716,36.50955574056802],[128.3696990049015,36.508927372942836],[128.37009598733354,36.50804372204102],[128.37066765595284,36.50706226507053],[128.3727617942129,36.50450613776008],[128.37394058607185,36.50364627140021],[128.37553319169564,36.50300003456549],[128.37791423383936,36.503410534911495],[128.38111263973497,36.50431297171494],[128.38417176852403,36.504928780003006],[128.3854739800392,36.50545020383292],[128.38667874732033,36.50607784192621],[128.3893960513315,36.50680818132115],[128.39053019823484,36.50706964708446],[128.39269129392898,36.50736070470482],[128.3932285523949,36.507497489129015],[128.39592636387326,36.50859792967025],[128.39743154091204,36.50911421570593],[128.39781680442704,36.50935009175335],[128.40003323972232,36.51007943810564],[128.40269198748982,36.511837890042074],[128.4026668250509,36.51272483301804],[128.40388420751145,36.51369736985786],[128.40518912878096,36.51466601540547],[128.40892344140886,36.51673285986591],[128.4101800788759,36.51809342116649],[128.4127336010418,36.52007749257098],[128.41423908578483,36.520824817783804],[128.41447272275045,36.52106329975746],[128.4193755212122,36.522956578228275],[128.42004777400368,36.52203237248521],[128.42117763072707,36.52149473313346],[128.42343894552053,36.520723202609084],[128.42428916503584,36.52061131645568],[128.42512117789434,36.52062067420087],[128.42643263196405,36.52075802883179],[128.42732028125386,36.52100744972726],[128.42834980314922,36.520362510517714],[128.42775621827386,36.52011166440255],[128.42780388433084,36.52007167595043],[128.42848889254046,36.520369820094544],[128.42877228453338,36.52014820394124],[128.42932798129715,36.51989854351565],[128.43065101473508,36.51964138086048],[128.4327938745016,36.51885456990407],[128.43426970050217,36.5189393376517],[128.43563500763568,36.518138718873075],[128.43589768874276,36.5175712662306],[128.4370480993356,36.516319304689596],[128.43614342107594,36.51540575537636],[128.43543739314288,36.51451909466064],[128.43471721443228,36.514036666728884],[128.43379997243306,36.51294922844015],[128.43312698510573,36.51267882778524],[128.43255849407862,36.51162407605065],[128.43197779956395,36.51107913590532],[128.43225311246155,36.50867702531168],[128.43259245542077,36.507973206087144],[128.43294574811296,36.50755448227599],[128.43317004395647,36.506816293198725],[128.43314841780472,36.506361800192664],[128.43364045698323,36.50467032717099],[128.43309674463833,36.50283614656546],[128.4335298493283,36.50241476392106],[128.43445615176492,36.50229748006759],[128.43551962860357,36.502829290444545],[128.43693713577295,36.50243407122198],[128.43709611259925,36.50231755813084],[128.4375470024294,36.501652090231374],[128.43941412503892,36.49988461980802],[128.4409353999919,36.49899617899274],[128.44255356387188,36.498274090328245],[128.44348485736103,36.497959571950446],[128.44432945701098,36.49658198983279],[128.4444515840308,36.49594582326099],[128.44511549776703,36.495357448317115],[128.446031431903,36.495119696395136],[128.44662451674495,36.494661981984095],[128.44751564606779,36.494496870359214],[128.44819069285785,36.49407841279193],[128.44880120914047,36.494032706795544],[128.44991630416266,36.49280611496242],[128.4508524143442,36.492455154573655],[128.45153457732684,36.492587938782556],[128.45220376144584,36.49165085136554],[128.45327969595124,36.49103883284684],[128.45407803809346,36.491118103767],[128.4546002784787,36.49090478316594],[128.455618470328,36.49269029038709],[128.45749498096478,36.49387961682239],[128.45760556772342,36.49345251134094],[128.45816462497527,36.492168147088854],[128.45933879312446,36.4913118791115],[128.45982703477196,36.49062446157595],[128.4603545860104,36.49030432744433],[128.4606442294175,36.49024137116306],[128.46121670579586,36.490326175740684],[128.46164619271573,36.49052280229486],[128.46208892493974,36.490905131444585],[128.46202571110183,36.49097461208528],[128.46227087488927,36.491402158610065],[128.46226338405742,36.4933603689166],[128.46244984791122,36.49500759696141],[128.46237662682918,36.496140469359545],[128.4625649722246,36.49653152335692],[128.4636503198767,36.49714532172355],[128.46363634075425,36.49729135170564],[128.46400790816074,36.49746588295797],[128.463800523166,36.498640937563046],[128.4641461379377,36.49891855907822],[128.46494256980586,36.49883671506321],[128.4660062719621,36.4990385101397],[128.46928419769765,36.49916040322855],[128.47013444035196,36.49928708134566],[128.47095084683818,36.49902557159344],[128.47357875370807,36.49882083673962],[128.47419415980457,36.4986088070386],[128.4747280660329,36.498735685079225],[128.47482914298226,36.49917426619394],[128.4746621340544,36.50018918712784],[128.4749918055751,36.500561597081976],[128.47518437649552,36.502090745763915],[128.47516167151525,36.505677815990424],[128.47636187133915,36.5064671869198],[128.47628693632296,36.50865853790778],[128.47616521790823,36.5088070235137],[128.47677703755065,36.51024032049404],[128.47549460357243,36.511904565786516],[128.47565076598303,36.5133702273637],[128.47599298660785,36.51353663478605],[128.47598162704526,36.513948729746964],[128.47641657001049,36.51429617769668],[128.4772681149016,36.514499362804855],[128.47764995867448,36.51473116403026],[128.47903043729943,36.51433505753665],[128.47961201402634,36.514558751733375],[128.4808184630745,36.51484227723226],[128.481577464229,36.514802161643495],[128.48255259328891,36.51416860811328],[128.48292851626127,36.51412536605088],[128.4844249106373,36.514778627055115],[128.48632941104367,36.51469777096551],[128.4871544625225,36.51561277042717],[128.4877700932203,36.51613813800899],[128.4879879404585,36.5164567004985],[128.48890433406132,36.51709347568527],[128.49035715087027,36.51732398498269],[128.49059316765081,36.5175707997589],[128.4915790690277,36.517573125678084],[128.49286100849304,36.516932553636416],[128.4939041829013,36.51692147926423],[128.49462440229274,36.51649629309338],[128.4953777311259,36.51657780958853],[128.49610070643126,36.51617002713787],[128.49655703040185,36.51542797856084],[128.49715039176058,36.51502829187041],[128.49796425225117,36.514268518384355],[128.49847128421965,36.513554269072955],[128.49855797824037,36.51330960557529],[128.4987454033003,36.51318870560641],[128.49887281338738,36.51245133477317],[128.4992667614455,36.51200515415643],[128.4989664049619,36.5110805447943],[128.49940671336046,36.50990898744114],[128.49942251151214,36.50944362374546],[128.4998978279128,36.50878664584656],[128.50068341225693,36.50736097977436],[128.5006411370002,36.50489709994019],[128.5008224552965,36.504460627088584],[128.50107470317909,36.50435608958859],[128.50116619591893,36.50412601534078],[128.501880823134,36.50334773814692],[128.50209687268529,36.50297643503662],[128.50315597514012,36.50230026692429],[128.50400014839929,36.5015124789541],[128.50400210130138,36.50119847509104],[128.50422251236964,36.500530052477274],[128.50417800368115,36.500356595320405],[128.50442592704508,36.49999332360641],[128.50540158867685,36.499063917747705],[128.50647426521024,36.49972308903829],[128.50789196435971,36.49979361940916],[128.50870398609408,36.500067751276916],[128.51017841283854,36.50029268329561],[128.5113722933358,36.49968427579624],[128.51292784938087,36.497946646608916],[128.51347429906912,36.49785385735298],[128.51414342326476,36.49757730096139],[128.51427114651673,36.49770662296669],[128.51485683620547,36.49783857950195],[128.5158005691061,36.49778520219408],[128.5166978027832,36.49716954037215],[128.5172401677104,36.49717193203207],[128.5177308777514,36.49735210564418],[128.51843021282565,36.49816009249563],[128.51874034317083,36.49836141048717],[128.51986369205733,36.49791461261692],[128.5207569707042,36.498222837527514],[128.5211742282725,36.49806912479652],[128.52311946037437,36.49825833075576],[128.524658261297,36.497389443874354],[128.52573277114016,36.49802926465902],[128.52642745616492,36.49884570210749],[128.52713064178437,36.4987429398674],[128.52842641342997,36.49839353846204],[128.528785744163,36.498132702761275],[128.5298360727172,36.49798380004058],[128.5314497800184,36.4982849592067],[128.5314767727787,36.49834516281559],[128.53253134159266,36.49796838984542],[128.53269460536356,36.497422848121055],[128.53333814370362,36.49684213642741],[128.53343709457917,36.49644776946036],[128.53391722320097,36.49553999191536],[128.53486220790703,36.4952507742856],[128.53717992553436,36.49507143147982],[128.53789896901756,36.49550960623959],[128.53856985698616,36.495363269788704],[128.53913591446053,36.4954711417622],[128.53984716449875,36.49445672875664],[128.53984970038925,36.49414414049814],[128.54058507066475,36.49318601150603],[128.54093981381249,36.49297841474857],[128.54098701187425,36.49272016656951],[128.5418696938492,36.49238748779879],[128.54192186755608,36.49209875461811],[128.54241311257854,36.49151179231464],[128.54298304580493,36.491393761865766],[128.54357789612226,36.49028256390502],[128.54436908830235,36.490155760422866],[128.54629777266453,36.4906601781207],[128.54851857986202,36.49033320474846],[128.5495348425389,36.49035465759425],[128.5499714721379,36.48984777602802],[128.5503066560836,36.48974599783561],[128.55126068020297,36.48906007149269],[128.55169700825905,36.488171646102515],[128.55195073663796,36.486012852166816],[128.55280742435255,36.484767267544626],[128.55249484489747,36.48437514743956],[128.55243985018862,36.4841877633406],[128.5524363560855,36.48343570721645],[128.55306394115541,36.48276781214308],[128.55230550838073,36.48157673445451],[128.55221641802657,36.48137515492666],[128.55224744472943,36.48125254450829],[128.55200803479948,36.480909594613564],[128.55241971326828,36.479626712262686],[128.5519134177212,36.478278608922004],[128.55252683649448,36.47753176713328],[128.5523929858617,36.475888795521584],[128.55374632585733,36.47460520272405],[128.55438851067882,36.4742890903896],[128.5550295349153,36.474141358792565],[128.55563813945272,36.473698115220685],[128.55590943143613,36.4733687854096],[128.55662489043968,36.47331862907271],[128.55828539747486,36.47268567637711],[128.55898788564085,36.47216204822994],[128.55833544424635,36.47079532422555],[128.55843695661247,36.47013623128755],[128.55809102654902,36.46950464696436],[128.5586430006147,36.468201904330414],[128.55959834677088,36.46730188969476],[128.5601109351043,36.466175339819145],[128.55982228575775,36.46547910715432],[128.55986832290208,36.46478385118093],[128.56033406385765,36.46420925206442],[128.5606764704209,36.463186017639],[128.56118797809245,36.46284283716823],[128.5614215695351,36.46256637864064],[128.56293109960762,36.46151126245782],[128.5632323509501,36.46104496918335],[128.56470768200856,36.46080684995551],[128.56442661120687,36.45993312876691],[128.565629189912,36.45928831892264],[128.5653356552046,36.4583325493818],[128.5658655901191,36.457938419610684],[128.5659185277745,36.45672073397092],[128.56515690085203,36.4553146434464],[128.56584296251987,36.45476361686721],[128.56604156595958,36.45448280371383],[128.56643454903943,36.45244351524369],[128.5700201768318,36.45090575419262],[128.57070047767806,36.449950979960285],[128.57084348099443,36.449385382880344],[128.57131043457395,36.44877580559898],[128.57143002587912,36.44824120407813],[128.57173866940965,36.44761118414636],[128.5721687067362,36.4470037863386],[128.57278620740593,36.44641165890738],[128.573565404402,36.44597452049821],[128.57427286447998,36.44447084855654],[128.57517875360423,36.44362936351012],[128.57587644223668,36.44171386415222],[128.57649737211386,36.44136355369018],[128.57700290528723,36.44075317118883],[128.5770735609795,36.440042366690335],[128.5790065912197,36.43960770210189],[128.58012867154062,36.43991330184931],[128.58198737326416,36.44007680125867],[128.58345784623208,36.440720165525796],[128.58440967262254,36.44027757621671],[128.58586109002925,36.440290703111486],[128.58628200176634,36.44021865148239],[128.58704148619918,36.43960768517449],[128.5878498004031,36.43976955117117],[128.5892679265825,36.439158805060444],[128.58988829527624,36.438648215312654],[128.59043751811487,36.438493910290326],[128.59061687811732,36.4381130867999],[128.59158830933245,36.43726892556644],[128.59315240931488,36.43662521004865],[128.59447257467008,36.43547170602222],[128.59528921932392,36.43440629330613],[128.5955095637254,36.43367856643955],[128.59703824037436,36.432944608334836],[128.59740811497682,36.43239058633974],[128.59820748085403,36.43164187787615],[128.59708192435446,36.43072122561671],[128.596722500877,36.42974218999789],[128.5967622592696,36.4288757997008],[128.59652060677112,36.42878131415586],[128.596304635231,36.428869516626264],[128.59617361221592,36.42876736741709],[128.596319846838,36.42872768114102],[128.5962404497569,36.428542899889884],[128.5953329987469,36.42737885652844],[128.595485805777,36.426706085893294],[128.59650783771013,36.425552029426896],[128.59714829456192,36.425059716896875],[128.5962007969506,36.42396379757335],[128.5951564819711,36.42208466964089],[128.59549074626736,36.42108537741714],[128.59591824627734,36.418768168840046],[128.596041897935,36.41753939094899],[128.59683207887338,36.41593986551403],[128.59678295331634,36.41518982695577],[128.59714134814828,36.414674803190294],[128.59678002865786,36.41380419534414],[128.59696558461067,36.41330359943419],[128.5967356460776,36.41258722802489],[128.5971736107618,36.410172451305144],[128.59778165860106,36.40909008891357],[128.59798600183356,36.40908369635796],[128.5979597817549,36.40887427739909],[128.59903094649985,36.408600884326574],[128.59974931574646,36.40817875753235],[128.6004487984359,36.407957071020995],[128.6008351474244,36.40760133716977],[128.60163823016427,36.40772657726483],[128.60293431972855,36.405464437580484],[128.60356173173392,36.40514402232461],[128.60425737723483,36.4056359023838],[128.6046879934449,36.40665619462394],[128.6052281160355,36.40720760546913],[128.6057984774264,36.4075860011775],[128.60615556291654,36.40840003907156],[128.6062097417789,36.40979820574658],[128.6069465027826,36.41022023995489],[128.60705829979597,36.41074360627481],[128.60689401207352,36.41129208606138],[128.6072901315864,36.41151343033085],[128.6078881764331,36.41226903350822],[128.60796876145938,36.41285054689235],[128.60863149190314,36.413379717791386],[128.609361807299,36.41477405753782],[128.60882014476144,36.415908044523846],[128.60934120704425,36.416290451266136],[128.6103640776518,36.41811427262915],[128.61102412131015,36.418123119192586],[128.61156352421273,36.41827888066432],[128.6118765558158,36.41867477205556],[128.61263988167283,36.41875852651095],[128.6130098931002,36.418877710452215],[128.61342626544518,36.41871045744136],[128.6139676853744,36.418812127074304],[128.61448738621527,36.41941275848331],[128.6155907201751,36.41957833028706],[128.6163684923018,36.4191981010263],[128.61727325174706,36.41933031367887],[128.61828417797267,36.41890353801497],[128.61921324700677,36.4192513801715],[128.6195667478693,36.41926095511803],[128.620111873278,36.41873488856642],[128.6207659461511,36.418691386003545],[128.62103901023394,36.41843538090543],[128.62265706578629,36.419110049858276],[128.6232110068913,36.418909090148226],[128.6238623739069,36.41890165347072],[128.62556145128096,36.419584748848266],[128.62642356466273,36.4195257032535],[128.6268219681827,36.41960053351772],[128.62743280961678,36.42012328225434],[128.6280491088976,36.419938617165904],[128.62867473041544,36.420033148021204],[128.6290270781834,36.42033892033541],[128.62913420638918,36.4206970415313],[128.6287519779018,36.42164807651936],[128.6285208480377,36.42259312082621],[128.62864850143674,36.42313398026551],[128.6283617657027,36.42370189584604],[128.62785335150485,36.424066419719054],[128.62830053180934,36.42457450334689],[128.62846004421723,36.42502229163227],[128.6285024791227,36.4259374060619],[128.629715998162,36.42658455418452],[128.629963690712,36.42653245416691],[128.62989122086614,36.4264993724436],[128.6309710878812,36.42535156167299],[128.63241063985808,36.42542848191331],[128.63330105334765,36.42518626886808],[128.6337751761658,36.4260481827583],[128.63518093736508,36.427437123878406],[128.63596402345715,36.42729718567821],[128.6363745242465,36.42782823238364],[128.63640004470477,36.428031746828935],[128.63656513236143,36.4280621428834],[128.63663310820135,36.42816287477777],[128.63659377053418,36.428729087257864],[128.6368964215727,36.42882209206245],[128.63702970375152,36.428979642856326],[128.63703688451258,36.429156372811576],[128.63745820677417,36.429690116125805],[128.63851092264883,36.42955994956129],[128.63966487001485,36.4295545394093],[128.64039568068085,36.42893037486312],[128.64106562075375,36.42851008025621],[128.64174412076864,36.42828252930252],[128.64292372302012,36.42820606351841],[128.64377456991173,36.428335994190554],[128.64586936748438,36.42845020108318],[128.64734641452688,36.42919291882846],[128.64838621854759,36.429855213403194],[128.64934177089353,36.43022271596945],[128.65022025769449,36.430224943110396],[128.65194756454162,36.42961821582939],[128.65264789718827,36.429583181241256],[128.65361076308946,36.42971994753521],[128.65416615234776,36.4300467743058],[128.65458635994128,36.43043994559363],[128.65478819638764,36.43083840213126],[128.65477812695218,36.43126710784408],[128.6549116250127,36.43154824216986],[128.65633318998547,36.43254308396081],[128.65677459288244,36.43303111952346],[128.6580631007822,36.43382981591091],[128.65916362556703,36.434291539360935],[128.6593037234946,36.434456005714395],[128.66047214384366,36.435127953471785],[128.6604690106741,36.43586459574725],[128.6609328366035,36.43635627543406],[128.661001677857,36.43611962957425],[128.6613962487757,36.43643542028663],[128.66283452062453,36.43724127719276],[128.6645995002362,36.43805467155556],[128.66603484011748,36.43821402741948],[128.66793649940666,36.43868589338871],[128.66878593758295,36.438678251604905],[128.66981741796394,36.43809025963951],[128.6705257596574,36.43782413093944],[128.67161404819714,36.437579126157836],[128.67305696068235,36.43667844090944],[128.67346719656786,36.43650404117008],[128.673804370169,36.43649677549862],[128.67475624068302,36.436683923208385],[128.67520442847706,36.43694570058886],[128.67938939196085,36.44076904138994],[128.67992443452164,36.44174476975395],[128.6819218053836,36.442978148525896],[128.68205730858875,36.442975672506975],[128.6827989839027,36.44336591809181],[128.682973907321,36.44388127892346],[128.683005431724,36.44467994115604],[128.6832494649831,36.44468270061604],[128.6832700371363,36.444280037494835],[128.6852018121404,36.444327696511195],[128.6853330622414,36.444208424592645],[128.68599671909138,36.4440678515008],[128.68709290532874,36.44400928435217],[128.6877036010027,36.443788070931845],[128.68805359842574,36.44380847333191],[128.68855445045665,36.44371467007794],[128.68891411267884,36.443875441485105],[128.6899323891498,36.443824421230744],[128.69064226748762,36.44406386170103],[128.69141439337693,36.44400759175548],[128.69196613409594,36.444346966383684],[128.69230518610019,36.44437763718429],[128.69299519646196,36.44463225978981],[128.69375604419517,36.445244036330784],[128.69449453458185,36.44545235662192],[128.69480629112306,36.44571739511704],[128.69488939887825,36.44649420752308],[128.6956624816152,36.44640129862723],[128.69643334914176,36.446110187630076],[128.69742574355973,36.4464697486556],[128.69838719347055,36.446448195730085],[128.69957265624777,36.447415158049836],[128.70056927339755,36.447119679781984],[128.70110956441084,36.44681971159704],[128.7020390948827,36.44691712782562],[128.7038524965197,36.44664799026215],[128.7041664389187,36.44678825361936],[128.7048799776307,36.446872962019874],[128.705281019976,36.44723469086864],[128.70604017809364,36.44750937027121],[128.70650660825376,36.44794365572905],[128.70689754896765,36.448018597034896],[128.70698858700638,36.448721796043735],[128.7065666302101,36.449396288459326],[128.70635291033764,36.45022097638468],[128.70581887867795,36.45104573600944],[128.7054659759644,36.45237614857945],[128.70525958299297,36.452723744196774],[128.7053564970947,36.45326664280215],[128.7058917040836,36.45423071924754],[128.70638012121515,36.45472832938431],[128.70656782499964,36.45666260125631],[128.7062704621475,36.457696284522605],[128.70670929917708,36.45804508882807],[128.70645521488427,36.45842856051931],[128.70584581073268,36.45877515098537],[128.70507221287156,36.45971004629027],[128.7055494207724,36.459932716240274],[128.70484852596684,36.46074972080072],[128.70497327460052,36.46113030908495],[128.7053476620883,36.46146510735676],[128.705652384911,36.46240712808114],[128.70566177342428,36.46307517724308],[128.7055416309319,36.46349475433817],[128.70480943780646,36.46398219143997],[128.70375050321638,36.4651990687345],[128.7035820013843,36.466021978724534],[128.70385137670056,36.46649653159846],[128.7037431203351,36.46749174827729],[128.70393856653396,36.46777280089827],[128.7041448443647,36.46875592395375],[128.70412773889603,36.46897833110896],[128.70473481720012,36.46958996806404],[128.70551383422992,36.469821849760265],[128.7058160038601,36.470008443587176],[128.70580912884478,36.47041148546111],[128.70625470167656,36.47117663136004],[128.70682610360907,36.471303330780415],[128.70725475611243,36.47172547920111],[128.70848444066576,36.47195089999119],[128.71012215343637,36.473039393121546],[128.71026507860833,36.47342001054331],[128.70999397141017,36.47464872863087],[128.71010708726365,36.47500471691864],[128.70992740694646,36.47538036520945],[128.70976186047574,36.476542537736805],[128.71018042942788,36.4769637045111],[128.71028182633216,36.477246922868765],[128.711137897179,36.477649129372665],[128.71172587152486,36.478194836444686],[128.71288721379887,36.47793856918536],[128.71304851928295,36.47817108700832],[128.71369433430036,36.478650626372236],[128.71388821610105,36.47991887983173],[128.71410906683914,36.48025865959634],[128.71422493512188,36.48072271648406],[128.71459448967238,36.48094267553208],[128.71503992483417,36.4816787881764],[128.7154422122404,36.48159613521917],[128.71679672868726,36.48167071841088],[128.71743268449657,36.48162186845352],[128.71882474422495,36.48240263363339],[128.71945086075382,36.48163985702512],[128.71999809766393,36.480431613651795],[128.72092009282122,36.48013704438378],[128.72174366026036,36.480326777879704],[128.72262255913853,36.47988076389091],[128.72299222950036,36.479790115106454],[128.72341362866493,36.479862586166455],[128.7238801375652,36.47935802660748],[128.72450967834197,36.47892601696797],[128.72449647779106,36.47829885620001],[128.72618390560723,36.47801121981475],[128.72673606906983,36.4773144953594],[128.72798203307812,36.47638107738386],[128.72943423601725,36.4773892092107],[128.73065016166916,36.477097901563845],[128.73158616502323,36.47713951056528],[128.73186616029193,36.47737564176764],[128.73252801996819,36.47739645592413],[128.73325630978542,36.47778542858345],[128.7336340160826,36.477853160474396],[128.73429088889526,36.478135053718404],[128.73497885796016,36.47890473473205],[128.7361071877374,36.47972065665579],[128.73755037882572,36.48039515285065],[128.73781579161215,36.48044507766004],[128.73772213895703,36.480904837015416],[128.73794246559888,36.481496876343805],[128.73857123821594,36.48240733680996],[128.73918655813057,36.48262194855928],[128.74036894669706,36.48340297495129],[128.74153160591246,36.483689844849344],[128.7423985773628,36.48475589184788],[128.74392167801193,36.485597801051966],[128.74426208250514,36.48557030219393],[128.7447777896171,36.48594317393312],[128.74533042818578,36.48656384936483],[128.74613437039653,36.48728755721275],[128.7470649989741,36.48835771617764],[128.74731453455033,36.48886427160692],[128.7491494087716,36.487947360023284],[128.75006831844297,36.487206029612274],[128.75029851135446,36.48629401693766],[128.75049954810356,36.48599148163651],[128.7518962025843,36.48574968511044],[128.75298289344772,36.48523055538455],[128.7536319236779,36.48474038068104],[128.75459714846687,36.484742823096006],[128.7554273035739,36.48498712791888],[128.75627667054866,36.485464855872834],[128.75730272320425,36.484763565375935],[128.75780383691213,36.48457993457256],[128.75940000434855,36.48449729445858],[128.7602983227075,36.484054088281134],[128.76168569255526,36.48277359776021],[128.76319190071575,36.482631691507905],[128.763373116456,36.482427131068924],[128.76398992355135,36.48218066029531],[128.7645500064716,36.481677091913056],[128.76651625632627,36.480943250574356],[128.7673488852964,36.48082054594456],[128.76773371631435,36.480570725682426],[128.7685326361311,36.47953200548487],[128.76898548742093,36.479145464706804],[128.7698540482111,36.47874852842105],[128.77030669478398,36.478092798560354],[128.7703634125954,36.476308200364564],[128.7717224479109,36.47578796597377],[128.77219391006193,36.47569959536994],[128.77289784835233,36.47571533716435],[128.77299167337006,36.47510490381896],[128.77357708175916,36.473284583051914],[128.77395884301527,36.47256511778309],[128.77387855929655,36.47165797058953],[128.7741004655739,36.47123681536023],[128.7748224519658,36.47100674510422],[128.7754710523538,36.47011128093558],[128.77597910372359,36.46860211327329],[128.77700247522893,36.46825856654309],[128.77755731424568,36.46742699532466],[128.77861346323584,36.46732961974875],[128.779663596726,36.467396468237496],[128.7808065428471,36.467024093729314],[128.78201338924328,36.46589416109989],[128.7821624635738,36.464730736566985],[128.7836056308087,36.46494345713505],[128.7843779657921,36.46580338663532],[128.78492136568147,36.4660897968903],[128.78500359804687,36.466240042565694],[128.78569122229388,36.46681064693078],[128.78640195100508,36.46629092662693],[128.7873342053074,36.465899113246586],[128.78773098510183,36.46553811855087],[128.7888492895644,36.4651730572119],[128.78981608810253,36.465451980221296],[128.79106350251737,36.46565515264777],[128.7919979379086,36.46560227641655],[128.79241547964898,36.46594770066424],[128.79289732151992,36.46560201319448],[128.79371744615204,36.46521746047199],[128.79422332300067,36.464418077314015],[128.79514345310318,36.46371553508099],[128.79503707207672,36.4634096518744],[128.79539871113738,36.463113922541595],[128.79648248833055,36.46282731065457],[128.79702708585293,36.46231819919116],[128.7980830077438,36.46180646112738],[128.79874585707617,36.4610905835026],[128.79892643011257,36.46103070180973],[128.79963672174952,36.458821502249734],[128.79991090602653,36.45877118537575],[128.8013930518047,36.45884710535443],[128.80222655524736,36.4593329166368],[128.80330832222407,36.45927970189735],[128.80428798055354,36.45936204099269],[128.80568877193164,36.45901143577206],[128.80679231882687,36.459235204841846],[128.80845810131282,36.459128626871696],[128.80912725038647,36.459274198623554],[128.80970458316568,36.45926347563465],[128.81115215901974,36.457762166535545],[128.81142115677406,36.45694800282005],[128.81204177822326,36.45638671207698],[128.8125066371345,36.45518242073568],[128.81315318078572,36.45444699824968],[128.81323958130008,36.45383158050893],[128.814291784752,36.45381419367607],[128.8164914326904,36.45355860287219],[128.81690035433292,36.45333782131053],[128.81974156400835,36.45385545348754],[128.82047432432822,36.45381585252841],[128.8227132383358,36.453123676490826],[128.82299394005008,36.452190208046694],[128.82423653000103,36.4527135328847],[128.8248437647118,36.452716938190584],[128.82529779633515,36.452518525244],[128.8256716955149,36.45257419135554],[128.82630973674543,36.452390148546996],[128.82689900737174,36.4526534111417],[128.82908294696372,36.452637732958635],[128.83045070705452,36.45234476929112],[128.8312971297869,36.45070573498484],[128.83117704213842,36.44792284768713],[128.83126189374656,36.44720241974665],[128.830476725575,36.446655249088955],[128.82979787123153,36.44575139402879],[128.8296916658599,36.44391353330287],[128.8299846685212,36.44367252482884],[128.83039477198918,36.44362427939186],[128.83133456245164,36.44308531402158],[128.83185616753437,36.442502627241865],[128.83192151186614,36.441412514517204],[128.83221314965016,36.440046363734815],[128.83198799949153,36.439585506233655],[128.8326897124667,36.438897851475346],[128.83258829214674,36.43793306055549],[128.83368711070284,36.43753608054589],[128.83545956472727,36.436668091007405],[128.83542593756528,36.43626061130678],[128.83507512372933,36.4359982184181],[128.83470211947616,36.43535493574372],[128.8348992276146,36.43434276521784],[128.83367005447954,36.4338024377904],[128.83373319182812,36.43358268817724],[128.83357875005174,36.43236331665408],[128.8333440584469,36.43189641894008],[128.83360593379265,36.43114848971944],[128.83404187675322,36.43032045645148],[128.83417922825893,36.429730144551534],[128.8340701944666,36.42759722912299],[128.83423244228138,36.4270586334555],[128.83457368347135,36.426886421173286],[128.83512190702365,36.426241088731736],[128.83582558719692,36.425051054368836],[128.8358166009763,36.424535928214915],[128.83655309987023,36.42413406484607],[128.83693777888763,36.42354389221808],[128.8374517201056,36.42321978409523],[128.83936828768933,36.42284931990234],[128.84092034958542,36.42241712833349],[128.84180392289434,36.421857266868344],[128.84261643393384,36.42097383164708],[128.84209480095117,36.41925753726416],[128.841535865098,36.41838202119769],[128.8421886002185,36.41783050722793],[128.84278642083873,36.41611862275374],[128.8428694098608,36.415487188059046],[128.84392050927823,36.414840813505215],[128.84459855416614,36.41418273863869],[128.84494353025374,36.413243159461835],[128.84479047604773,36.41291383535784],[128.84568188609086,36.411644548401405],[128.84499890340223,36.41097228751131],[128.84493944442403,36.40998938988453],[128.8450796810808,36.40954121687855],[128.8443597897713,36.40875096826826],[128.84430066406412,36.40837120244311],[128.8442938666503,36.407965569905436],[128.844432216874,36.407452096566125],[128.84546257254763,36.40600722025157],[128.8453594588037,36.40507822679096],[128.84521221293747,36.40461111308711],[128.84560924517393,36.40378278439491],[128.8463005504487,36.4037783136522],[128.8470572775858,36.403506160001285],[128.84709084481855,36.40259842254897],[128.84809884095625,36.40190566093472],[128.84871122061983,36.40126039950156],[128.8496089444314,36.40135406715525],[128.850971917715,36.39991525046594],[128.85139346066825,36.39922929002044],[128.85101349795207,36.39668808843894],[128.8514554873127,36.39591000876797],[128.8519587136795,36.39445381231749],[128.85027657421142,36.39251478783671],[128.8503761866473,36.39060390587812],[128.85069168714853,36.38955946299737],[128.8503986341713,36.38890484442792],[128.85028711833846,36.38828400548802],[128.85124172753768,36.38797807363676],[128.85217715524405,36.38740579678316],[128.85286297275076,36.387690240777616],[128.8532417718258,36.387700705412534],[128.85573920246108,36.387193987339515],[128.85652049639063,36.38733277176649],[128.85701912191212,36.38766797977716],[128.8597274163812,36.387797910621565],[128.86168363727015,36.38517192059356],[128.86333489098314,36.38515407893203],[128.86560017612425,36.38372468297764],[128.86606087500596,36.38359330193846],[128.86631999576056,36.38325982924661],[128.86593939403198,36.38276457482369],[128.8660123578805,36.38131362115253],[128.86788058547035,36.38143199399792],[128.8692774370884,36.38049110448921],[128.8699713780348,36.379572460669316],[128.87043376825375,36.378480335936715],[128.87141522921533,36.378125680519645],[128.87261193374988,36.37725011151236],[128.873893261579,36.377016037960715],[128.87573296048018,36.37625397604589],[128.87629517010816,36.37665483945375],[128.87801334294264,36.37592251579367],[128.87803846680896,36.375707567463955],[128.87821405340728,36.37549418929734],[128.87791576813976,36.37471638696105],[128.87626789801575,36.37360387885685],[128.8743675049364,36.37309562115151],[128.87410047331505,36.372588463995136],[128.87422344896305,36.37211209172162],[128.87329971124447,36.37026538798209],[128.8720725375717,36.37035782300287],[128.8719233637183,36.369813344682804],[128.87171425766275,36.36673650798992],[128.8719918282981,36.366013023698486],[128.872482529652,36.365888778176924],[128.8744523704037,36.365105264638835],[128.87591847092125,36.36491838817088],[128.87608720472903,36.36479776320355],[128.8765125170956,36.363922440331386],[128.87703110014965,36.3633072283468],[128.8773640426866,36.363095042085035],[128.87755145795956,36.36263567455872],[128.8783839826432,36.36184433209672],[128.87845863078402,36.361386171542094],[128.87896863288864,36.36090792934047],[128.87909569915684,36.36034278970965],[128.88076514162645,36.35939494872119],[128.88106538712836,36.358909870685494],[128.88081902498928,36.35717729631418],[128.8809042923351,36.35669868793338],[128.880002315972,36.35552463534868],[128.87956044495652,36.35456299318788],[128.87981757081883,36.35350079800024],[128.87926737116902,36.352752586369306],[128.87920934925074,36.351235823432106],[128.87717314735661,36.34868608378493],[128.87785019630445,36.34815200186836],[128.87807350567763,36.34768136872268],[128.87719603488318,36.3461588882044],[128.87686244244802,36.34483144291276],[128.88156069399477,36.3447243776567],[128.88307492677805,36.343980561167875],[128.8844889554308,36.34358631957623],[128.88544409709235,36.34358956677594],[128.88605797484828,36.342979857927304],[128.88627225584145,36.34264337635905],[128.88664027936392,36.33984775952793],[128.88715387318086,36.33941082090557],[128.8872648394934,36.33805161036771],[128.88823255744288,36.33643024184652],[128.88962328867422,36.333332944065035],[128.88856916386666,36.330691836140694],[128.88895980319592,36.329877846168316],[128.89002740382148,36.32958869414108],[128.89125039262944,36.328313543838604],[128.89162895254964,36.327087226551],[128.8922004474805,36.32615547231821],[128.8926294189288,36.32563481131057],[128.8928033135023,36.32429233949681],[128.89226115023177,36.32310986819927],[128.89249883869564,36.32155604690734],[128.892442092447,36.32063367425127],[128.89202058538413,36.32007973061036],[128.89123506540847,36.3196965392126],[128.88970242873376,36.31932374892195],[128.88845052709388,36.317750400911656],[128.88716996049487,36.316891818885175],[128.88691803077194,36.3164568215255],[128.88694008461118,36.31536453141664],[128.88770178800374,36.314069659084666],[128.8868428719651,36.313090958767766],[128.88623452609468,36.311565981982895],[128.88729613525166,36.31012784199211],[128.88813281868536,36.309808574744594],[128.88847807095684,36.30926672406464],[128.88904894643622,36.30871710025609],[128.88922578759704,36.308418930416174],[128.89073521079226,36.30694497819837],[128.8914833626329,36.305627213298465],[128.89197123987236,36.305446055031304],[128.8922811090951,36.304823090214086],[128.891619700786,36.30429969976707],[128.891212409789,36.303568132928774],[128.89112895646247,36.30263209735871],[128.89068126767262,36.30137856255284],[128.89076327854545,36.30016368254727],[128.89003042891017,36.299690682984284],[128.8898656168015,36.299102543707775],[128.88982787621472,36.29863347897907],[128.88950513125556,36.297885366770856],[128.88949031585128,36.2974007328452],[128.88811368197557,36.2966967743109],[128.88590814994012,36.295728351488144],[128.88499322576502,36.295985986065915],[128.88419298956586,36.29715477699769],[128.8836356958512,36.29767153499948],[128.88294205588056,36.29740428853558],[128.8811950810194,36.29725363248896],[128.88055185295153,36.29602578895726],[128.8795957335029,36.29630139123004],[128.87900094755182,36.29534084339882],[128.87899212806346,36.29460892050412],[128.87930759795347,36.29400234142249],[128.87884960131325,36.29356220332353],[128.87826877587258,36.29220945268427],[128.87846169268067,36.29139523370139],[128.87846571216247,36.29034507946348],[128.87792637899616,36.29006774285951],[128.8778334776353,36.28924646105629],[128.8779340072601,36.28842044958614],[128.87812455928628,36.28826334461698],[128.87776668648365,36.287025730156245],[128.87895294599127,36.28612607351172],[128.8790571227729,36.28569146684544],[128.87881841656846,36.28532073627867],[128.87882272212525,36.28476014981187],[128.878004119074,36.282297495819],[128.8779922716077,36.28169967347946],[128.87815718313985,36.28125337851446],[128.87812239909675,36.28055379762521],[128.87748623170853,36.27977074869173],[128.87706292312402,36.27904170966951],[128.87707604840554,36.27777026763244],[128.87742896461774,36.277077442144176],[128.87746671159354,36.2763069673982],[128.87730089957063,36.27413527038986],[128.8758439812533,36.27357180517312],[128.87493258530552,36.27330715723611],[128.87409962945785,36.27339549047929],[128.87344963117602,36.27318206242059],[128.87274726581586,36.273264469993045],[128.87135496044195,36.27411450321449],[128.87083940502836,36.27416326311687],[128.87018098973937,36.273767092630905],[128.8693539960771,36.27402302899196],[128.8684593771858,36.27405401145343],[128.86733384554066,36.27433707859063],[128.86699484608963,36.274606008335795],[128.86620543251394,36.27491799185422],[128.86494761871072,36.27439377560426],[128.86343496110382,36.27439191311934],[128.86314655875438,36.27395167493878],[128.86331922053176,36.27302361671382],[128.8639393696241,36.27224339044618],[128.86407743343798,36.271960693760455],[128.86410962801494,36.271555304985796],[128.8629429436444,36.270701481962455],[128.86308333595696,36.26874647480829],[128.862792023962,36.26839742311739],[128.8626627119496,36.26796162131011],[128.86220343103923,36.26783129845458],[128.86147114562337,36.267401352348266],[128.86091745784384,36.2673939260421],[128.86060781258934,36.2672476956254],[128.8599047002678,36.26713709188589],[128.85939132350953,36.266876941263654],[128.85889062801655,36.2667684282851],[128.85830461556563,36.26641414749797],[128.8577772972059,36.2662068458925],[128.85598312430335,36.2661586262932],[128.8548933284604,36.265970876144785],[128.8539073876343,36.266451402432985],[128.85289334246016,36.26642878893873],[128.8521099150682,36.266515552766805],[128.8509179621919,36.26600453618214],[128.85026054389576,36.26583701428246],[128.84961912602915,36.26550531277557],[128.84840510563404,36.264160897129166],[128.8476731645255,36.2635319567477],[128.84718557331905,36.26268667275719],[128.84688834404008,36.26124842598357],[128.84758101394075,36.260956351984014],[128.8496490128631,36.260832621100484],[128.85049195547194,36.261270367646546],[128.85279815947914,36.258091782860205],[128.85413265465448,36.257110606919966],[128.85573881863664,36.25627690227456],[128.8564726026173,36.25532903145865],[128.85658925182753,36.254566145167566],[128.86051376068164,36.255105257053],[128.86150930861004,36.255461359270065],[128.862326476246,36.255310741633984],[128.86432913445293,36.2552693647318],[128.86555214563236,36.25553598953356],[128.86653683883873,36.25502559848596],[128.8690314726805,36.25464633634528],[128.8693993370531,36.25503454273917],[128.8697667585762,36.25515178699499],[128.8701040485828,36.255096914990794],[128.87123367482036,36.255660456091015],[128.87154461488785,36.25588942585982],[128.87177860320887,36.256407602048476],[128.87226209199844,36.25622597697743],[128.87344365610727,36.25603350982985],[128.875266575073,36.25546415624102],[128.87534429427137,36.254973856177344],[128.87598313292867,36.25453234157054],[128.8777407147891,36.254198263154656],[128.87914543865017,36.25417519552355],[128.8806664863132,36.253793852970325],[128.88217404600402,36.25270917130015],[128.88243376965661,36.25005477741587],[128.88265810902178,36.248839502364646],[128.88304594707353,36.24789596229363],[128.88412920353423,36.24703666331187],[128.88424027801227,36.24466309026772],[128.88420515561714,36.24288293345266],[128.88226600827605,36.24171178464301],[128.88108723557838,36.24148639697725],[128.8815465303176,36.23873070844101],[128.87910762063598,36.23597452113821],[128.8784171273764,36.2357320141356],[128.8761888146799,36.23538769923382],[128.8746566781313,36.23446004711947],[128.8721805970226,36.23336159238835],[128.86961022247118,36.23282052314083],[128.86898226300465,36.23250825118604],[128.86892221234658,36.23205670526681],[128.86929228287002,36.23158001429913],[128.87026645687243,36.23123240604569],[128.87343481155392,36.229409075389626],[128.8737306727753,36.228597605932066],[128.87513373319007,36.228577827394496],[128.8759149716834,36.22797946438548],[128.8767923220236,36.22761246962348],[128.87748506572245,36.227522466299966],[128.87842052523342,36.22721636833312],[128.87868613952432,36.22688876900505],[128.87951508773529,36.22627368705269],[128.8802027389198,36.226151318936324],[128.88060474192085,36.22591603651664],[128.8810696339524,36.224916153196006],[128.88104880245552,36.22466154499865],[128.88133831342432,36.2242228644954],[128.8816000257946,36.223449235698155],[128.88194791073113,36.22189881791519],[128.88171630300752,36.221395990332866],[128.882712807785,36.22010579717584],[128.88313294085506,36.21864028518891],[128.88376380893786,36.21867481031977],[128.88488846242996,36.217581166836744],[128.88535427579455,36.21753556866323],[128.88561005498443,36.217191271728424],[128.88665215374905,36.21682759854444],[128.88751771609844,36.216845854988215],[128.88791630357457,36.21704816463213],[128.8889157944955,36.21708855416834],[128.88998934192134,36.21671498635819],[128.89095450634082,36.215697720304924],[128.8912853568424,36.21515477586024],[128.8930492713389,36.214881026688076],[128.89316583420361,36.21411263782843],[128.893966875389,36.213977973484134],[128.8959327243103,36.213180570040805],[128.89513640822247,36.210957462182165],[128.8958123425527,36.209738075648154],[128.89594924410787,36.2086623753689],[128.89569358787745,36.20775489723691],[128.89662081518017,36.20674653520163],[128.8960590906641,36.20624035329244],[128.89609107947854,36.205761557605044],[128.89579945849786,36.205094162493964],[128.89552757961803,36.204789966451266],[128.8955862522889,36.20473656838197],[128.89539495735372,36.20466469075424],[128.89537609844493,36.20427739365042],[128.89478531944783,36.2043630229417],[128.89467500138988,36.20411763675663],[128.8943367688536,36.203764416704075],[128.89393756142002,36.20361344163717],[128.89369785600041,36.20336338716169],[128.8934468294332,36.20331788472038],[128.89244912701292,36.2035395938085],[128.89106338247487,36.202714620351216],[128.88999836887814,36.20180358618172],[128.88859099811515,36.201637059686526],[128.88674934633644,36.20154931643344],[128.88589418950127,36.200300722820344],[128.8845300902812,36.19918126399943],[128.88317307826813,36.19839497830159],[128.88189422730903,36.198703467253814],[128.88076604159892,36.198857575195326],[128.87605021176512,36.19869331388542],[128.87435622530433,36.19980788537889],[128.8731050719826,36.20214472450306],[128.87207449358294,36.203649082382675],[128.87121588807568,36.205159412943246],[128.86869247920944,36.205532358017635],[128.86708689621113,36.20539385454687],[128.86590635018536,36.20540301315465],[128.8637777469494,36.206641747013954],[128.8616305247698,36.207319867924696],[128.86034108314556,36.20694552052267],[128.8593516986554,36.20724400653431],[128.85837441255097,36.20780728824627],[128.85808110488006,36.20823603268768],[128.85748724553025,36.20875694096658],[128.8571051774781,36.20977950020637],[128.85473417443018,36.21085927713486],[128.85315263309113,36.21169630456557],[128.85263813699368,36.21265292455293],[128.85116911878532,36.212638562055076],[128.84981122856493,36.213363221340664],[128.84851082924212,36.2147116375964],[128.8479739108586,36.21479887072323],[128.84560472396785,36.21456547215853],[128.84366634955393,36.215560085942315],[128.8431799911102,36.21620903375784],[128.84205303597662,36.216143715254255],[128.8405407027677,36.215570604101906],[128.83896333836563,36.21514551489838],[128.83648443378007,36.21515160370816],[128.8353724069361,36.21457872608082],[128.8342171919463,36.21460125119154],[128.8324740635691,36.215765488946175],[128.83067987987602,36.21804564007056],[128.8287526616721,36.21789786297372],[128.82655683905142,36.21824196686833],[128.82521071649865,36.21790477464165],[128.82380766272388,36.217228525623426],[128.82295754947668,36.217087350165016],[128.82186312846414,36.216501639677944],[128.82118320005537,36.21588752582675],[128.82027730585884,36.215430180390825],[128.8197568791722,36.21542052356568],[128.81853688744482,36.214832185643],[128.81832609122893,36.21437228109116],[128.81778623746771,36.21396070727914],[128.8172216779446,36.21383880902048],[128.81684625058816,36.21334909805984],[128.81637422438695,36.213070593720865],[128.81558270560066,36.212094157067625],[128.81471737224086,36.21148477373803],[128.81420181643475,36.210977622762044],[128.8138360636194,36.210720551788235],[128.81337491292012,36.2105322261581],[128.81235086282453,36.21049898943076],[128.8114135784503,36.21005984833613],[128.81090242311015,36.210337225427814],[128.80786724859365,36.21010745190478],[128.8049712598652,36.21028845049648],[128.80409995639684,36.20980775231358],[128.8042023687075,36.20969510055643],[128.80455898357042,36.20826294078231],[128.80522552729443,36.207001929510156],[128.803366199608,36.20626480669735],[128.80164243199854,36.20578683089698],[128.8022929104092,36.204587567590664],[128.80290237514046,36.20419249568917],[128.80379053304472,36.20317854336138],[128.80319024432518,36.202519370941836],[128.8033762246176,36.20208323862255],[128.80320867586232,36.20105269567462],[128.80152131708851,36.197871981609005],[128.79886440879542,36.19604082402664],[128.7984530894435,36.19458661339135],[128.7979880414692,36.19345438862363],[128.7964471411655,36.19081957771029],[128.79438930233246,36.19071321797232],[128.7920456870982,36.191296775825485],[128.7877031003816,36.193100867107006],[128.78527736539283,36.193544045253084],[128.78421083260355,36.19384511478872],[128.78282772660518,36.19367340580123],[128.7819153444506,36.19372043654715],[128.7806611817343,36.194380464391365],[128.78003922540157,36.19423990034714],[128.77770527543572,36.194263506359164],[128.776958456617,36.19450487240252],[128.7754899030926,36.19453353378766],[128.7748543609899,36.19490102091413],[128.772787722561,36.19483504326706],[128.7723868031471,36.19471883338672],[128.76995776075677,36.193425692166635],[128.76923231801595,36.193877724125905],[128.76750529277936,36.195351251133346],[128.76584649473665,36.19657921195328],[128.76577222253763,36.19697634908656],[128.76505262876515,36.1975572108748],[128.76429572928063,36.19751232096002],[128.76469292094518,36.198021679276444],[128.76334389357837,36.19933441577545],[128.76136919192598,36.199384641925505],[128.75958712684496,36.2002107037917],[128.75885014576588,36.200762591366576],[128.75856844580645,36.20115778904401],[128.75863588150892,36.201648050006234],[128.7579766440639,36.202862035645836],[128.75598070445625,36.20246973279804],[128.755598295064,36.20258848240504],[128.75499207456997,36.20244454936284],[128.754206804759,36.2026321176338],[128.75269110373415,36.202811171523926],[128.75160447045747,36.20166447135996],[128.7518121201348,36.20113973311195],[128.7514093304231,36.200058980880236],[128.75072563159125,36.19976709531175],[128.74996912745243,36.198878452410106],[128.75051664403534,36.19808997389775],[128.7504899371889,36.19783208579793],[128.75039133296983,36.19712287220639],[128.74982832619,36.19673230122991],[128.74959081958505,36.195959395636955],[128.74742644497974,36.195229133675454],[128.7470876482776,36.19492654051621],[128.7459195556003,36.19444650867763],[128.7451134381095,36.19497637359917],[128.74459489239803,36.195579090347906],[128.74437117333284,36.19568314878753],[128.74404760755084,36.195995330601974],[128.74325204542717,36.19622071845732],[128.74309332985004,36.19682978260968],[128.74307940645014,36.19743978996199],[128.74173786192182,36.19853211852338],[128.7404460661138,36.19918366651224],[128.73986681439453,36.19911449688367],[128.73922528472875,36.19923606119768],[128.73846878783368,36.1999448226441],[128.7378734305444,36.19995238079981],[128.73692173828798,36.20031508500451],[128.73658798448128,36.2000789817684],[128.7355676985162,36.200163396548795],[128.73499623233366,36.20072922971462],[128.732419517122,36.19940714407793],[128.7316145739136,36.199281381696565],[128.73085993331884,36.199311192808736],[128.7295157375843,36.19881318296135],[128.72926609582163,36.19897765138733],[128.7288010710821,36.19954252547128],[128.72814787700483,36.20007104652673],[128.7274758734608,36.2007586358577],[128.72691874073175,36.20049749971909],[128.72644453019254,36.20037508321443],[128.72554839527118,36.20076391408043],[128.72477351638312,36.20051776638219],[128.725361171851,36.20009904042416],[128.72555150230278,36.19986264529378],[128.72497867059317,36.19929813972375],[128.72392983229986,36.198943822820404],[128.72367677893854,36.19907916305307],[128.72262294825038,36.19919453495158],[128.7209995693096,36.19810744271324],[128.71913175832572,36.198083162293315],[128.71912666615012,36.19868386883297],[128.7186311694492,36.20011174169126],[128.7179075326339,36.20003826745906],[128.7166799579975,36.20044210726034],[128.71525381291218,36.20012621637993],[128.71349874833163,36.20003478926632],[128.71218143345794,36.19912046897829],[128.71113346269732,36.19944192915896],[128.70957306740425,36.1987988447025],[128.70857416971464,36.198579793490474],[128.7058284413586,36.19922554434829],[128.70473782366733,36.199096453161054],[128.7045209942242,36.19939112874027],[128.70451865896487,36.19928226766593],[128.70466681118342,36.199095511086],[128.70456742071718,36.19900988542952],[128.70451900878655,36.19906597284103],[128.70429697916276,36.1990417925018],[128.70404190207097,36.19927106268673],[128.703658480093,36.20026015249258],[128.7029372248499,36.200239313578464],[128.70213463448331,36.20065075908069],[128.70188656181227,36.20108144097311],[128.7016915713408,36.20103040480135],[128.70136281420318,36.20117561949159],[128.70094188222976,36.201119013770814],[128.70002697929567,36.2012782702448],[128.69913668477764,36.20119033027507],[128.69633241495904,36.20215058289368],[128.6962564544962,36.20276191229829],[128.69629622147025,36.20447964367591],[128.69684818766936,36.205257256654384],[128.6973999359735,36.20575765038446],[128.6978847841071,36.20599575980954],[128.69832782889793,36.207746648432206],[128.69895147811295,36.20790486273501],[128.69988560312063,36.20883989181971],[128.6977799373631,36.21034155099878],[128.69781026879215,36.210745857904634],[128.69812589365287,36.21136741773358],[128.69806885886425,36.211666342895114],[128.69735265311013,36.211670418934204],[128.69696058036186,36.21187244264695],[128.69625475212996,36.212768989251714],[128.69498228742228,36.213140660380574],[128.6942083645622,36.21396334780019],[128.693080440225,36.21383712757555],[128.69229133400376,36.21326864737263],[128.69158906237388,36.21254135342764],[128.69117644888578,36.21257815246491],[128.69017437220964,36.212187262579036],[128.68929444004146,36.212589578840834],[128.6887815290246,36.2126874160566],[128.6883518250634,36.213434957848314],[128.68798161291068,36.21375801223888],[128.68565700375456,36.214182787424285],[128.68511045934423,36.21475574549589],[128.68385407065446,36.21473903505399],[128.68271222242296,36.21529432345133],[128.68197743975696,36.21524752083926],[128.68152842216415,36.21478646129626],[128.68062160543926,36.21456457546732],[128.6799007705478,36.21423659870848],[128.67865560595968,36.213855980737186],[128.67779225017523,36.21349274867449],[128.67699267322976,36.2135325700474],[128.67617603451157,36.21271834346665],[128.67484793054487,36.212720115433584],[128.6747129726851,36.21226985412325],[128.67389083595944,36.211937770514524],[128.67331814965476,36.211023014981315],[128.67309815385357,36.21023211131742],[128.6727764799202,36.21015354557622],[128.6726104770159,36.21000148203078],[128.6726660614817,36.20974246092904],[128.67261063903604,36.20926637108827],[128.6724214078493,36.2086229224693],[128.67210831038074,36.20822428403185],[128.671896636258,36.20815064169067],[128.67193268084046,36.208335296102675],[128.67137439281436,36.20854221242521],[128.67066754209523,36.209019857285405],[128.67033794248385,36.2090109612839],[128.66995062490741,36.20922186747841],[128.66951317116303,36.20925462089893],[128.66937833486935,36.209371158487805],[128.66874593756955,36.210665811726315],[128.66831064665357,36.211259333302706],[128.6678906251408,36.21153144973742],[128.66741088502292,36.212153682159354],[128.66766220586192,36.21305591732784],[128.66770457301834,36.21354633767255],[128.66753334657122,36.21472110354409],[128.6661339438374,36.2154529770993],[128.66536129550667,36.2157536368504],[128.66587552046462,36.21688821930734],[128.6645499019804,36.217702379291666],[128.66453866066917,36.2183061453334],[128.66464136142977,36.21896152782505],[128.66245314677568,36.21902831831025],[128.66238955628674,36.22011261251405],[128.66250001912363,36.22039078040889],[128.66092304722608,36.22105169691244],[128.65975532762295,36.22138032154424],[128.65904500536647,36.22023840293012],[128.65826773852154,36.22026559119479],[128.6569931545037,36.22014154809557],[128.65566817086886,36.22011600808783],[128.65577691422163,36.21983162731952],[128.65586643167566,36.21906329687243],[128.6556088096703,36.21835330689441],[128.65433929092876,36.218044794594235],[128.65303092607707,36.2171313128345],[128.65203160842782,36.21708775543027],[128.65145684301103,36.21755760560633],[128.65043506331082,36.21750484911963],[128.64905054414302,36.21803340140121],[128.64870119370892,36.218068491815956],[128.64795954501943,36.21716120200504],[128.64736240888487,36.216711139542326],[128.64750146402557,36.21593961830121],[128.64701785078046,36.215497495816464],[128.6464044692824,36.21475793600864],[128.64569644691372,36.21451999177077],[128.6446502501202,36.213736085609376],[128.644205877781,36.213685536877946],[128.64403620801406,36.213589828486654],[128.6439084439684,36.21306104269543],[128.64254086974117,36.21211255524149],[128.64192283008742,36.21073613165722],[128.64123355160734,36.209755563744345],[128.63941162023698,36.207483552064986],[128.63828691757135,36.207946348855494],[128.63783138803007,36.20827237752494],[128.63541080097067,36.208996937144434],[128.63452682046116,36.21218671670484],[128.63471853502278,36.21234762614659],[128.634758660124,36.21276675763136],[128.63451674897652,36.2128551979641],[128.63431079102017,36.21367200907721],[128.6335289433888,36.21422662463484],[128.63181517418943,36.21621424420366],[128.63202775824251,36.2165782063186],[128.63202368674632,36.2168646729773],[128.63383870372982,36.21741515768023],[128.6348949915108,36.218471564185634],[128.635118651902,36.2191978598922],[128.63582012206155,36.220790919990016],[128.63602853979083,36.22256656586946],[128.63627294770902,36.22382775091558],[128.6345987380661,36.22468531983595],[128.63324901552284,36.22503966706548],[128.63290522851682,36.22551187687922],[128.6344553605615,36.2260038507738],[128.63640715135892,36.227022630761276],[128.6370698655805,36.22759864462057],[128.63717053538358,36.227973457962364],[128.6371789732688,36.228415705727684],[128.63694838099673,36.229772733471236],[128.63527317118672,36.23017732553774],[128.63491839016197,36.23048847380573],[128.63445275763897,36.23114822092989],[128.63506092774398,36.23141509705836],[128.63610996471536,36.232227850669865],[128.63665195308207,36.23310046607667],[128.6364015541379,36.23364975112164],[128.63520558176316,36.23529933315073],[128.6352547051132,36.235649973187776],[128.63431059478623,36.23640072445906],[128.6346803052562,36.236883939293726],[128.634800182434,36.23731207306586],[128.6340116209406,36.23786087374636],[128.63312567331053,36.23866176469274],[128.6336998890555,36.23889546045435],[128.63462339384247,36.239481741716986],[128.63574290040293,36.24035579618321],[128.63644569741146,36.240378029854874],[128.63745735672813,36.240782491445955],[128.63947483629352,36.24131559026921],[128.63894038114768,36.242946137343544],[128.6388796379094,36.242755974233084],[128.638703191167,36.242701521393755],[128.63874814058957,36.242979871838884],[128.6390656437759,36.24335695300514],[128.6397561738725,36.24366444562036],[128.63986468403095,36.244469667833044],[128.64136950423915,36.244804869749586],[128.64074421652924,36.245563082193144],[128.64066112679095,36.24576512980181],[128.64023826549393,36.24611218004401],[128.6400461795715,36.246504624962164],[128.63993884619182,36.24704205607421],[128.63963244340383,36.24743623648194],[128.63878393393037,36.247691406166254],[128.63870004660512,36.24783334084356],[128.63881562571683,36.248395706440654],[128.63874892746134,36.248694048869424],[128.63836670155288,36.24932124971496],[128.63861895183865,36.24996553327262],[128.63865191020437,36.25094684336309],[128.6384885826814,36.25183115814688],[128.63972383998055,36.25197710674704],[128.63984661058655,36.25248113202173],[128.6405648613001,36.25318792828367],[128.64050645263887,36.254420446232544],[128.64003433006837,36.25569277255805],[128.64060022604014,36.25751298931242],[128.63986096782725,36.25829450743167],[128.63898647965286,36.25856697406463],[128.63816376986492,36.25916426997483],[128.637702848754,36.259832565696584],[128.63715902441808,36.25990795283917],[128.63704229735063,36.260602752114146],[128.6361378290249,36.261506159923144],[128.63475084128373,36.261552102655024],[128.63404465761033,36.261635259581105],[128.63323021875232,36.26192306220947],[128.63255691650042,36.261910732087756],[128.63196679045828,36.26222521680783],[128.63153866408777,36.262731962406406],[128.6312574874353,36.26286845077304],[128.63065916072102,36.26255395909716],[128.6299307690862,36.262405734268505],[128.62953091389605,36.263246124209616],[128.62930805958652,36.26338598850387],[128.62902567228616,36.263787884129904],[128.62820567279945,36.264358759525805],[128.62786250468582,36.264480483267945],[128.62701804992923,36.26522664410609],[128.62606219532253,36.2655892936236],[128.62561611726815,36.26606600594527],[128.62448266949983,36.266723005389736],[128.62374639247582,36.26703043678959],[128.62304325591137,36.26717524206879],[128.62130800760696,36.26729222804961],[128.6206528941231,36.267460097941104],[128.6200090930408,36.26793968301564],[128.6196081358258,36.26810325675366],[128.619004275485,36.26803272038542],[128.6175535797118,36.267497808488095],[128.61630732813438,36.26735139710531],[128.61528423815068,36.26794676213554],[128.61499662844068,36.268417178123016],[128.61354526334577,36.26971151453971],[128.6116061582173,36.27014112895289],[128.6105931593079,36.270680180479445],[128.61023987843177,36.270703204097266],[128.60890657914308,36.271209201177165],[128.6086843563339,36.271113351957496],[128.60677488261163,36.271127225339136],[128.60510618751437,36.270250877980146],[128.6033673420933,36.26993113153858],[128.60178558014937,36.27005738359332],[128.6007985686452,36.27043075675304],[128.600239412892,36.27031664025092],[128.59941928687448,36.270489039696734],[128.5976300886084,36.27133025680092],[128.597414811909,36.27175082255423],[128.59749775554806,36.27226963288145],[128.59771922774345,36.272736209812315],[128.5974976625385,36.27331606500221],[128.59673469216023,36.27393711113015],[128.5965120231978,36.27554323322122],[128.5955953499904,36.27704468128862],[128.59450131681913,36.277718542244195],[128.59302283941943,36.27708583061357],[128.59234194707466,36.27737621535413],[128.59148016445977,36.27761156300585],[128.59065574563448,36.27713420898741],[128.5895836687315,36.27729401353731],[128.58881496071086,36.277277242177824],[128.58870800267442,36.27769795807431],[128.58769804601437,36.2783061434399],[128.58677618908095,36.27844538180639],[128.5862739779116,36.27826701726953],[128.58544193009928,36.278223221253796],[128.58498533969407,36.2786535220684],[128.58399909818894,36.278763370633904],[128.5832845035802,36.278656706784766],[128.5826589509174,36.279058525240146],[128.5817891734257,36.27908398946088],[128.58140948134582,36.27950133503533],[128.58176211674083,36.27962443950261],[128.58166332008244,36.279669016493],[128.5812477287354,36.27958187286143],[128.5812234208409,36.27937206515428],[128.58062836919774,36.27950466284406],[128.58008154840869,36.279302801878835],[128.57921365614047,36.27946943263459],[128.57872770024647,36.27975241617095],[128.57741051096755,36.279739020442285],[128.5758128371344,36.27993334317074],[128.57541886528963,36.27916222577576],[128.57415928015675,36.27841660269708],[128.573992083961,36.27734910883207],[128.5735851416469,36.27685769172646],[128.57318450532935,36.27651067365109],[128.57153608645035,36.27602377304583],[128.5717178380793,36.27536106850749],[128.57125365700162,36.275097183640845],[128.56995817247275,36.27465904048905],[128.56850079969877,36.27441896227152],[128.56789981762077,36.27447574925577],[128.56675378672708,36.27421407733589],[128.566659601382,36.274311882353445],[128.56664089487393,36.27423925141874],[128.56597136416636,36.274456802111686],[128.56531021863293,36.27502901148392],[128.5644302810586,36.275470738195025],[128.56334106252848,36.27584471629295],[128.56335680451647,36.27542158951301],[128.56313746242856,36.27532800046936],[128.56295742552686,36.275360684102175],[128.56278104161973,36.27553016174754],[128.56267991370595,36.27553091723931],[128.56272614247948,36.275392332371524],[128.56241420167973,36.275386456432244],[128.56020504938786,36.27555162268508],[128.55992443116548,36.27540268558862],[128.559942597811,36.27532701761623],[128.55987603949052,36.2753987670311],[128.5597545525963,36.27531906876751],[128.55973727206117,36.27519789556537],[128.55927633825377,36.275143130850616],[128.5593232793867,36.27509635299697],[128.55882815520707,36.27461595068682],[128.55755788904747,36.27406592148015],[128.55562070869314,36.274227713704846],[128.55483141351579,36.27510633750387],[128.55369232179726,36.274329452914905],[128.55275082888846,36.27456052805978],[128.55182727961815,36.27502887136823],[128.55168893870893,36.27627660005939],[128.55182721544193,36.276703386223474],[128.55158642196338,36.27745226972233],[128.55196467606103,36.27802021744719],[128.55093763610142,36.27855098553855],[128.54991573028744,36.279376395084526],[128.54986861721255,36.27987283806875],[128.54995575680124,36.28142066878321],[128.54979253240526,36.28268346666771],[128.5498648230261,36.28424120765511],[128.5487515471073,36.284709899811325],[128.54895836030994,36.28605750896814],[128.54855223452716,36.28670605310755],[128.54805767441317,36.286912134409626],[128.54800430427971,36.28766755029597],[128.5477757875626,36.28869469114969],[128.5473203392015,36.289396537400236],[128.54566738128494,36.29010223120507],[128.5455622109227,36.29039279287859],[128.54526909247116,36.29057412699693],[128.54551415326944,36.29195247244802],[128.54331761062292,36.29296536061723],[128.5427981664195,36.293885685931855],[128.5416481914762,36.29415993057614],[128.53974902027312,36.29475283072737],[128.53896880950109,36.29462476845786],[128.53842543360145,36.29435100634459],[128.5375355856817,36.2944695491616],[128.53612599841745,36.29485095508587],[128.53590701917037,36.29556206664926],[128.53566900095433,36.29582532798771],[128.53467533872777,36.295343028454184],[128.53379104185967,36.29505282829397],[128.5333229656552,36.29510014667311],[128.52993526942714,36.293831373104325],[128.52931589353773,36.29378377117109],[128.52848705543403,36.29518757121906],[128.52655385889602,36.297079565545786],[128.526536793758,36.29798845777077],[128.52588221400498,36.299307949827615],[128.52495433613524,36.2999742149254],[128.52317152101392,36.29959838137054],[128.52181228285986,36.30049620035751],[128.52057269729883,36.30008438648023],[128.519605017881,36.300251398036444],[128.51865873449435,36.301017786255805],[128.5180486922057,36.30193393193479],[128.51591109121662,36.30182240118525],[128.5150574397307,36.30201125066336],[128.5143075182204,36.30118789594062],[128.51321170592496,36.30087371099965],[128.51206454114978,36.3013282675556],[128.5117432839997,36.30122788622826],[128.51077681341195,36.300667035049344],[128.50905543202555,36.30218582355245],[128.50851348877336,36.30331872507854],[128.50702248772515,36.30364646165344],[128.5065659483668,36.303351493550444],[128.5039133699123,36.303230793604556],[128.50220011051815,36.30376002916938],[128.50024262674052,36.30378570502672],[128.49824999954782,36.30339270574987],[128.49763663964612,36.30314202101],[128.49643750602746,36.30295024807364],[128.49618951638976,36.303494337129834],[128.49460306695065,36.304056324465805],[128.4938506094002,36.30448442379774],[128.4930370408064,36.304710242880105],[128.4921750576522,36.304559394849626],[128.49115356035608,36.30402654721375],[128.49084524795592,36.304349337151535],[128.4903627655523,36.30602047116547],[128.4891022952708,36.30728849368755],[128.48772934050396,36.30810987664771],[128.48723397166717,36.307941517037655],[128.4861884583065,36.30812636043697],[128.48567734059878,36.30769553266045],[128.48440464949675,36.307486785182334],[128.48353648871225,36.307842089745364],[128.48265396623097,36.308790980638875],[128.4808756474123,36.309759731259405],[128.47965395642143,36.31005858610893],[128.47947185075665,36.31061837292443],[128.4791257795771,36.311025379714735],[128.47759018031846,36.31108394126376],[128.4767431156583,36.31148912313832],[128.47617640976142,36.31136058783915],[128.4756980583665,36.31169983910911],[128.4740669753328,36.311690491840416],[128.47318536347535,36.31217725004878],[128.4734246481273,36.31429599190964],[128.4730878657819,36.315672436310884],[128.4735063847667,36.317946339064584],[128.47292711557978,36.318169981613416],[128.47287611308715,36.31831531283646],[128.47249656315446,36.31852003755511],[128.47220333092443,36.31848820805489],[128.4718189673057,36.31866172886756],[128.47187949544667,36.31899506886092],[128.47183374454045,36.31916538523748],[128.47152692695553,36.31953623499447],[128.47135431814968,36.31997090513035],[128.47144630315293,36.320001772498756],[128.4714105173036,36.32011453019424],[128.4712591490165,36.320327967441585],[128.4712413888747,36.32040828187286],[128.4713980949712,36.32048871220868],[128.47137544983238,36.32064743365405],[128.4710332234013,36.32092615178882],[128.47011515135176,36.32011677266693],[128.46927067453063,36.32067812041904],[128.46955140112857,36.320907626745495],[128.46857889860445,36.32179831726268],[128.46755406063983,36.32193071268695],[128.4663990462787,36.32185814988526],[128.46455620425175,36.32266647073301],[128.46250078103998,36.32277526476667],[128.4616456378022,36.32313691044931],[128.46083109150157,36.323361278551545],[128.4601453373063,36.32419853137499],[128.45823916979887,36.32416046979805],[128.45763595205167,36.324597973982065],[128.45575607320765,36.325017821129144],[128.45544968481818,36.32540072448574],[128.45539162195388,36.32618393346671],[128.4554420114509,36.32688533425416],[128.45387443619228,36.32723645786447],[128.45306251710065,36.326835068865016],[128.45162877603855,36.32719881652619],[128.45066525518493,36.32576994297747],[128.45101954174578,36.32479523324312],[128.44911411567452,36.323399359031406],[128.44819073596332,36.32357700715916],[128.4470444548108,36.32268895825437],[128.44699074399,36.32164829409962],[128.44529008411362,36.31963075521695],[128.44511325888428,36.318397496214274],[128.44426884391285,36.31777775964596],[128.44338371383222,36.316860495876114],[128.44199258354388,36.31596966877893],[128.4401911407861,36.31575636196744],[128.4386114169775,36.3146762749865],[128.43803981543604,36.31404220638773],[128.4388133854078,36.313351409962],[128.43882023741477,36.312782129497435],[128.43920929079763,36.3123197413365],[128.43902292798282,36.31185467311925],[128.43905457999358,36.31104284263905],[128.43838278395432,36.31018048869442],[128.4386403672981,36.30993282600949],[128.4389427874867,36.30983239031528],[128.43866676252856,36.30868311997068],[128.43886623700246,36.30805325894794],[128.4384856457925,36.30693379305533],[128.43892945945893,36.30594930962797],[128.4385243201857,36.30510193508777],[128.43804659732857,36.30486918378396],[128.43732628036219,36.304320237470485],[128.43618538779677,36.30442600791477],[128.43565630972006,36.30517601725486],[128.43460732652028,36.30568743600809],[128.43339870852455,36.305376780056356],[128.4325924002213,36.30491067377009],[128.43192286761578,36.304389404307514],[128.43184927283033,36.30264421960899],[128.42982517187926,36.300490596968906],[128.4278899334341,36.29891464616013],[128.42548735315168,36.299133750758244],[128.42473608593625,36.298578343455254],[128.42376437737923,36.298858052445865],[128.42267188953275,36.29875838949931],[128.42112034962946,36.29836469079016],[128.42066330566402,36.29870840331014],[128.41981571151837,36.29916221205528],[128.41801726762966,36.299059394668475],[128.41775932182645,36.29928162555158],[128.41650968697795,36.29871935311166],[128.4162432964954,36.297956823195705],[128.41540700192525,36.29732191778458],[128.41414376468586,36.29606635670572],[128.41379300384196,36.294872936158754],[128.41319720693747,36.29404069637201],[128.4128225397848,36.29368692784567],[128.41321268110883,36.29221964411574],[128.41373225573426,36.29176047575106],[128.41389797865332,36.29127455938538],[128.41357262876323,36.29059960614063],[128.41116141056983,36.28825384120274],[128.41043911324027,36.28720079765865],[128.4086516983147,36.28713331992462],[128.40684694744377,36.287193073627336],[128.40652423766602,36.287340440935466],[128.40602538381017,36.28729909953759],[128.4054053522202,36.28741344201364],[128.40367078374265,36.28812150173425],[128.40237804445263,36.28900154881639],[128.402072221725,36.289076904046034],[128.4011123982803,36.289019145328034],[128.3991276401733,36.29038485327617],[128.3977089721235,36.29211104321312],[128.3959597996199,36.293064475470416],[128.3957939562052,36.29372824738116],[128.39547978977384,36.29445322270048],[128.39550488621643,36.295414229648074],[128.39516693632908,36.29705207477255],[128.3938817280943,36.29816271069403],[128.39272874010896,36.29823625707385],[128.39208321312998,36.29852754251276],[128.39086864839396,36.298668921383836],[128.39090337303475,36.29914586138469],[128.39064331675135,36.3000144480393],[128.38785965728277,36.30419850587365],[128.3892641510576,36.30963804401148],[128.38574099733805,36.310766125163155],[128.38037473658,36.31220641865836],[128.38116395034604,36.315452456547966],[128.3811905755016,36.31657116507438],[128.38110194882105,36.31770109861589],[128.3806001488181,36.318358316807945],[128.37920724826296,36.319551037107786],[128.37945154511775,36.31981307831514],[128.37874264658936,36.32259511830461],[128.37747506906035,36.32291911783329],[128.37518205116328,36.324548639312965],[128.3742686410497,36.324510633193896],[128.3735157301517,36.32481138138099],[128.3724242761486,36.32497320473077],[128.3722956775775,36.325449008622414],[128.36993006221235,36.32934785655638],[128.3675161027678,36.331342982788954],[128.36699788083982,36.33395923280156],[128.36572550001185,36.338120339586105],[128.36378231905098,36.33879093098703],[128.36170100919838,36.34029769442089],[128.36086754966226,36.34044389477318],[128.35933111023357,36.34048549251183],[128.35832825449106,36.341122464500835],[128.35694507787505,36.341211887672195],[128.35377146623424,36.342063501735545],[128.35352423129217,36.340750407223425],[128.35127112736694,36.34187447807602],[128.34827679490738,36.34317356222112],[128.3483491450988,36.34426323304437],[128.34758563454946,36.344943100225436],[128.34634887146896,36.34587182815475],[128.3460222720624,36.34685680535271],[128.34503791280116,36.3471135852188],[128.3429487890617,36.347289649375185],[128.34075040207307,36.34725160669018],[128.34027246573672,36.347907655370726],[128.33909849646074,36.34806588570003],[128.33841340088733,36.34892749480665],[128.33801350747785,36.34893709849567],[128.33713006223635,36.349274630153374],[128.33568271689396,36.34927670416566],[128.3346420313023,36.34917093620094],[128.3346431357172,36.34843002005405],[128.33325372626612,36.34660248925202],[128.33256887418446,36.34527283012182],[128.3334855181371,36.34397972259226],[128.33280204980684,36.343935348309955],[128.33195424507136,36.34316489699696],[128.33169870387226,36.3424974554536],[128.33066553371944,36.34278510474477],[128.32961246351522,36.34232945745316],[128.32893648040707,36.34246842571808],[128.32694485720754,36.34238876744452],[128.32574905125543,36.342603084149296],[128.325045567337,36.34185592890986],[128.32363378929674,36.34124528084819],[128.32386490216297,36.34060310181587],[128.32271337524742,36.3398077840563],[128.3225296963197,36.339213941136826],[128.32199293902437,36.33883465730074],[128.31930037809855,36.337478278922475],[128.31874427057605,36.33688935986648],[128.3183738693209,36.33619673111706],[128.3159482254462,36.335478524826605],[128.3162042421739,36.33452363897944],[128.31570795461573,36.33362470781186],[128.31565712980063,36.332912221766875],[128.3169308270434,36.332333202697846],[128.3171893783623,36.33202068352955],[128.31569593747057,36.33160153823759],[128.3153299286944,36.331347392635834],[128.31515787687442,36.33100339683194],[128.3147669757216,36.33075108911697],[128.3137390616217,36.3311433739491],[128.3132522993964,36.33084994854523],[128.31188318566774,36.33080207297454],[128.31147856284872,36.32997516880701],[128.31001694328566,36.3306690671373],[128.30828399862187,36.330261961049985],[128.30794274666175,36.3306547969361],[128.3062656004412,36.331392167846815],[128.30542375497777,36.33148133118277],[128.30542752534998,36.331644688022664],[128.3047544188513,36.33279593348972],[128.30528859559706,36.33354757476426],[128.30462524994758,36.334657476728815],[128.30463652672793,36.33520838396419],[128.305123204759,36.336782045776374],[128.3050601473895,36.337530765217515],[128.30472938184553,36.33814894155855],[128.30403910738656,36.33895314499051],[128.30410397338682,36.339447195197494],[128.3034984589406,36.34011388668024],[128.30344962222054,36.34043773845695],[128.30314986558747,36.34071759872494],[128.30327270826348,36.34109144928851],[128.3027551709757,36.34211602220932],[128.30189317444322,36.34288935302731],[128.30183802969879,36.34346914940241],[128.301526215931,36.34365544886589],[128.3002573133002,36.34397326446406],[128.29751854215536,36.3440821985651],[128.2970943360109,36.34509181386225],[128.29575765397522,36.34610955976472],[128.29524647066907,36.34687842440472],[128.294692950647,36.3472474461838],[128.2936124481115,36.34860742688611],[128.29166887986983,36.34738243956123],[128.2876822024509,36.34630236917717],[128.29204194877263,36.35052461089823],[128.29440722620114,36.35128276675547],[128.29669844177525,36.35267647388886],[128.2988991756225,36.35544024261824],[128.2997364579544,36.35677773502468],[128.30206077500205,36.358999315537076],[128.30313740842197,36.35982475233309],[128.30421813424203,36.360818466697175],[128.30476402454502,36.36112134760271],[128.30531381477186,36.361669858122745],[128.30688625007815,36.36259089554463],[128.30724439964303,36.36305436755764],[128.30778320241697,36.361356830995945],[128.3103362097488,36.36414741294568],[128.31095362575041,36.365407235552674],[128.31173774022497,36.36807226590834],[128.3118668876184,36.36894302037342],[128.31176890132542,36.369957675330184],[128.31158170429214,36.370946717816906],[128.31142068078648,36.371344908278246],[128.31131923902262,36.37512257360517],[128.3120149257003,36.37534857123023],[128.31488162686566,36.38244093087794],[128.31444455279436,36.382028087921924],[128.31477960308072,36.38367108213674],[128.3151648054618,36.384296054043936],[128.3172104019273,36.386706967293804],[128.317489000534,36.38734834357577],[128.31749540560807,36.387629962681],[128.31873984767284,36.387115063471164],[128.32141456050607,36.386359386593305],[128.32159657341688,36.38613921720915],[128.32313851865754,36.385498496878],[128.32417303497724,36.3855084312062],[128.32625533831373,36.38619005418232],[128.3266306626273,36.386161968554646],[128.3267709853538,36.38676518964149],[128.32788939307642,36.38773970702502],[128.3282713119866,36.388343729656995],[128.3287380607608,36.388464527155385],[128.32933225451742,36.389040526397054],[128.32917694085327,36.389912939413634],[128.32936164193643,36.390675072542216],[128.32991935643057,36.39122485628363],[128.33014123416223,36.391775048288395],[128.3303832639599,36.39296490840069],[128.3307478624948,36.3935298597575],[128.33077295158023,36.3937129431233],[128.3310342402061,36.39412995735871],[128.33106705459383,36.39437404680927],[128.33179456196797,36.39485567435313],[128.332433342067,36.39542428414232],[128.332404782167,36.3965586628037],[128.3335616534286,36.39785253816675],[128.33362265616216,36.39821653820642],[128.3330295950649,36.398835986965324],[128.33294185566572,36.399100316671785],[128.33271397594967,36.39937744201713],[128.3333107106279,36.39976206711624],[128.33333083872378,36.40032637126192],[128.33450689054925,36.400577525439104],[128.33531545276733,36.40131232033824],[128.33575566195725,36.40208620359176],[128.33645711541493,36.40228547153776],[128.33716003870722,36.40273681297869],[128.33778274862775,36.403745614929704],[128.33856560949488,36.404400592355664],[128.33903709946023,36.40494524052411],[128.33880352477829,36.405630953543735],[128.3387882003964,36.40604136878725],[128.33888505663398,36.406513828724464],[128.33855363247162,36.40741024535844],[128.33794023106458,36.40797021882601],[128.33723795227743,36.40876644440777],[128.33627490588177,36.40945795092293],[128.33486893453397,36.41019702772756],[128.3338747916444,36.41029797204107],[128.33304598677802,36.410590885926716],[128.33407457153268,36.41104532011243],[128.33336057375473,36.412391066515966],[128.33302739658706,36.41524218001595],[128.33241420533383,36.41634814794913],[128.33289748704954,36.41682241580707],[128.33281030291914,36.41766588755733],[128.33247075559532,36.41877662233941],[128.33375903785765,36.420125802164456],[128.33411618017703,36.42014866022807],[128.3339604831793,36.420682494116],[128.33354212266485,36.421132430945676],[128.33240833048762,36.42112245190199],[128.3314142389531,36.42124885055292],[128.33084961498008,36.42169081088578],[128.3302666944395,36.42230161245183],[128.33004339589613,36.422872872946954],[128.32971477124394,36.42328557864223],[128.32977295337594,36.42332845804659],[128.3297367390854,36.423412295160354],[128.32935958016816,36.42346435867795],[128.328884974642,36.42366655268374],[128.3284557139158,36.42358346342375],[128.3277561425387,36.423917240578035],[128.32737344449066,36.4239234072576],[128.32685029176474,36.424065077474],[128.32358210723203,36.423908395315884],[128.32336449408302,36.4240107192755],[128.3230168209108,36.423955198265766],[128.3218916911753,36.423443167484194],[128.32174741117052,36.42359191831343],[128.321744867412,36.424359670406766],[128.32165763597,36.424589875921],[128.32176441332345,36.42476663961421],[128.32184968420765,36.42539728660214],[128.32181894141254,36.42575551493177],[128.32228333498708,36.42673829650383],[128.32302411186643,36.42765427709724],[128.32295509270477,36.428335276316446],[128.32278362283793,36.42857963834435],[128.3229994468979,36.42875240679106],[128.32286895132341,36.43037610391049],[128.32235829927768,36.43100606494876],[128.32209317478055,36.43193835805158],[128.32172151582117,36.43187359513761],[128.32164476127102,36.43225180074199],[128.32276137034438,36.43300621997814],[128.3229518634993,36.433508942396024],[128.32353129826149,36.433953974614454],[128.32358013587682,36.43435250333338],[128.3241642102044,36.43524017347625],[128.32489664311578,36.43605370639855],[128.32525366454317,36.4362399949009],[128.32561407929182,36.43665766109979],[128.32650754129264,36.43693255401888],[128.32627097850494,36.438005883801345],[128.3254550066137,36.438584585171014],[128.32571345087013,36.43905641795379],[128.3258957925813,36.440315535565865],[128.3255688485966,36.44056313933774],[128.32521865927313,36.44121052863669],[128.32509989119933,36.441599780219974],[128.3248510821889,36.441926602473174],[128.32437614392117,36.442119358513224],[128.32415081541262,36.4426044358862],[128.3236249738149,36.44320038653714],[128.3236875129436,36.44433632496655],[128.3233502949107,36.44473643640788],[128.32279616889525,36.44491364199403],[128.32266256678847,36.44504086255799],[128.32269044001364,36.44518168029306],[128.32206868781583,36.445435266198636],[128.32187392643925,36.4456585599456],[128.32091712384008,36.44569202946758],[128.31981332125383,36.445946549139705],[128.31958922768564,36.44622732664672],[128.3189296186816,36.44648143678056],[128.3184782133591,36.446812070058414],[128.31819407879726,36.44789708537002],[128.31771825122888,36.44904945260438],[128.3172410036424,36.44951725781392],[128.31629291484762,36.450951464213546],[128.31480847451792,36.451645202221926],[128.31388414223514,36.45246633536987],[128.3140439498007,36.45408124299461],[128.313506933592,36.45456324181242],[128.31321709882945,36.45593497125745],[128.3127188155998,36.45707450790539],[128.3127115247972,36.457495316028165],[128.31251585604315,36.45818295470956],[128.31238569214295,36.45848194030601],[128.312134134812,36.458773042641795],[128.31213943561957,36.46011265271386],[128.3117421290132,36.46099741168499],[128.31095893536508,36.46148096711587],[128.31072667050037,36.46154983089445],[128.31077880801456,36.46208757177288],[128.31038960449658,36.46247871997878],[128.31026191763743,36.46289405430349],[128.30959742284506,36.46310863118497],[128.30906180306437,36.463602818347866],[128.30862963087438,36.46381345665292],[128.3089696158484,36.46472967961846],[128.30933404792862,36.46505527514153],[128.30949085196926,36.46564663712093],[128.31007696266747,36.46642317429817],[128.31048208645163,36.46719989540073],[128.3115389999861,36.46861682233881],[128.3127176398919,36.4691097038194],[128.31313748181256,36.46957651833483],[128.31412493427064,36.470266506377065],[128.3145788386021,36.47076036587625],[128.31584685834747,36.47054735612548],[128.31675752377785,36.470672102227596],[128.31790624027076,36.47059024952467],[128.31834035180577,36.47110482476359],[128.31875311897724,36.47110352812183],[128.3204646951106,36.47137244726395],[128.32011878719098,36.47196207890988],[128.32032826888704,36.473141647390776],[128.32051340448172,36.473434140814675],[128.32050631511726,36.47377900174436],[128.3209544316308,36.47449643024049],[128.32161102089995,36.4751627157858],[128.32208520339788,36.47545258164516],[128.32285243246972,36.47525105507225],[128.32314951021397,36.475088809101436],[128.3234672935276,36.475157407259324],[128.32384290959607,36.47579759102694],[128.32430143288718,36.47621249112431],[128.32452628154616,36.47656896809745],[128.32475812272077,36.47720331391467],[128.32539319781216,36.47760244065084],[128.3260315297428,36.478357351395374],[128.32648669459016,36.47848579760483],[128.32671195386013,36.47868612368787],[128.32677445397917,36.47908110302411],[128.3275723636004,36.47996931164488],[128.32764189413146,36.48067931356055],[128.32755123033715,36.48107994264122],[128.3282239955524,36.481447475013866],[128.329337679037,36.482356241515106],[128.32975526291457,36.48259632172419],[128.3300278516885,36.48328738758464],[128.33054011339814,36.48371813756283],[128.3307358135396,36.48429277510078],[128.33121489902976,36.48495399055623],[128.33130875369744,36.48549507337372],[128.3318394171204,36.48571958787891],[128.3324037182835,36.485823419225],[128.33394326219667,36.48667509975106],[128.3342282780429,36.48706166828896],[128.3347373490724,36.48737808223926],[128.33518415109248,36.487535708560294],[128.33575738871212,36.48804230980433],[128.33599868354904,36.48863626093868],[128.33790600386814,36.48876658093431],[128.33874905854748,36.48988266456904],[128.3385786297336,36.4905077911398],[128.33803495776112,36.49131443108152],[128.33712634532614,36.49167357859426],[128.33695348816886,36.492132844052286],[128.33698851083227,36.49265399461403],[128.33670049192978,36.49322867545719],[128.3364378902367,36.493562137095715],[128.33606461075888,36.494386910710325],[128.33596039008793,36.495172398692056],[128.337086278284,36.49584336868467],[128.33824193404516,36.496924852417166],[128.33800858432195,36.497417377005924],[128.3362213304154,36.49872559597738],[128.33597592673502,36.499373756181306],[128.33649718314433,36.49962236591322],[128.336503910108,36.5000313382335],[128.33728787029386,36.50110338716433],[128.33852057337856,36.50207019465524],[128.33914877267176,36.50237678927222],[128.33971543525703,36.50278246141227],[128.34001202353159,36.50337239358181],[128.34041421234448,36.50381233966196],[128.3405489937123,36.504514988728296],[128.34117557110739,36.50497902784086],[128.34072090016946,36.50584058976508],[128.34147735821813,36.50660908266812],[128.34196423183917,36.506897308410146],[128.34177581634023,36.50934719664627],[128.3416759405523,36.50980641152004],[128.34234983825905,36.51014188899708],[128.3431852751008,36.511319236718535],[128.34389645436386,36.51187255284854],[128.34439783930415,36.512423348640425],[128.34491246497328,36.51358811197817],[128.34532405967266,36.51381593018066],[128.3455562792838,36.514140506687454],[128.34551485818292,36.51443600367549],[128.34503790094737,36.515619441796744],[128.34489273744302,36.516503645106916],[128.34400560153992,36.51856984004985],[128.34398212347256,36.51934441383049],[128.3435426916408,36.520125615152416],[128.3436800574294,36.52109650414565],[128.34268884765618,36.52138857852419],[128.340964561641,36.522891456755005],[128.340713218645,36.52373180230396],[128.34102958574329,36.52433633905407],[128.3413026847975,36.524445112528184],[128.34186250012073,36.52502114875822],[128.3416793171158,36.525097029105],[128.34231624266803,36.52526689941938],[128.34280525687151,36.52519022022493],[128.34277079247912,36.5255020555155],[128.3431059701033,36.52565903575904],[128.34358842558342,36.525602898995736],[128.3437329843804,36.52569225038638],[128.3441344934693,36.525741493836975],[128.34447543495213,36.52568207737366],[128.34521726430123,36.526214692593015],[128.34613971631765,36.5264506341504],[128.34753231574842,36.527585754459324],[128.3499735339227,36.52693410623775],[128.35023678494272,36.52694292413901],[128.35102747754559,36.5272652929308],[128.35302583477042,36.527312399456335],[128.3538167696746,36.52709457699608],[128.35417963645182,36.5274361381333],[128.35501215122622,36.52777363928347],[128.35550252247722,36.528122357525234],[128.35545180864585,36.528292856231936],[128.3560953206596,36.52887829951605],[128.35685198727927,36.52913380701918],[128.35830233414396,36.530486836356275],[128.35825812497455,36.532501869021345],[128.35855440390446,36.53259155202909],[128.36033194743592,36.532417992944936],[128.3612657794841,36.532186002805396],[128.36289002242972,36.53151627582887],[128.36415110396982,36.53078451710412]],[[128.55467456732845,36.29878452588097],[128.55469333907777,36.298784235554805],[128.5546928265122,36.29878431474525],[128.55467456732845,36.29878452588097]],[[128.42108378634174,36.40554039738246],[128.42108549508245,36.40553998214446],[128.4210855141609,36.40554041479058],[128.42108378634174,36.40554039738246]]]}}]}